start=new Date('2023-01-29T00:00:00.000Z').valueOf();
sats=[{"COUNTRY_CODE":"US","ELEMENT_SET_NO":"999","BSTAR":"0.00106930000000","MEAN_MOTION":"15.08768413","DECAY_DATE":null,"OBJECT_TYPE":"PAYLOAD","REV_AT_EPOCH":"2988","EPOCH":"2023-01-28T19:21:24.264576","OBJECT_NAME":"STARLINK-4104","CENTER_NAME":"EARTH","TLE_LINE2":"2 53163  53.2139 223.3012 0001205 112.9346 247.1773 15.08768413 29881","ECCENTRICITY":"0.00012050","FILE":"3764201","EPHEMERIS_TYPE":"0","MEAN_MOTION_DOT":"0.00016738","SITE":"AFETR","INCLINATION":"53.2139","OBJECT_ID":"2022-083AH","CLASSIFICATION_TYPE":"U","APOAPSIS":"540.798","TLE_LINE1":"1 53163U 22083AH  23028.80653084  .00016738  00000-0  10693-2 0  9998","MEAN_MOTION_DDOT":"0.0000000000000","RCS_SIZE":"LARGE","PERIOD":"95.442","SEMIMAJOR_AXIS":"6918.099","TIME_SYSTEM":"UTC","MEAN_ELEMENT_THEORY":"SGP4","REF_FRAME":"TEME","PERIAPSIS":"539.131","NORAD_CAT_ID":"53163","MEAN_ANOMALY":"247.1773","ARG_OF_PERICENTER":"112.9346","RA_OF_ASC_NODE":"223.3012","GP_ID":"223914425","LAUNCH_DATE":"2022-07-17"},{"SEMIMAJOR_AXIS":"6917.875","TIME_SYSTEM":"UTC","RCS_SIZE":"LARGE","PERIOD":"95.437","MEAN_MOTION_DDOT":"0.0000000000000","APOAPSIS":"540.946","TLE_LINE1":"1 53164U 22083AJ  23028.88283647  .00000416  00000-0  44259-4 0  9994","CLASSIFICATION_TYPE":"U","OBJECT_ID":"2022-083AJ","INCLINATION":"53.2161","LAUNCH_DATE":"2022-07-17","RA_OF_ASC_NODE":"222.9577","GP_ID":"223913943","MEAN_ANOMALY":"269.8796","ARG_OF_PERICENTER":"90.2396","PERIAPSIS":"538.534","REF_FRAME":"TEME","NORAD_CAT_ID":"53164","MEAN_ELEMENT_THEORY":"SGP4","MEAN_MOTION":"15.08841814","DECAY_DATE":null,"BSTAR":"0.00004425900000","COUNTRY_CODE":"US","ELEMENT_SET_NO":"999","MEAN_MOTION_DOT":"0.00000416","SITE":"AFETR","FILE":"3764201","EPHEMERIS_TYPE":"0","ECCENTRICITY":"0.00017430","TLE_LINE2":"2 53164  53.2161 222.9577 0001743  90.2396 269.8796 15.08841814 29892","CENTER_NAME":"EARTH","OBJECT_NAME":"STARLINK-4116","EPOCH":"2023-01-28T21:11:17.071008","OBJECT_TYPE":"PAYLOAD","REV_AT_EPOCH":"2989"},{"GP_ID":"223914192","RA_OF_ASC_NODE":"223.3266","LAUNCH_DATE":"2022-07-17","MEAN_ELEMENT_THEORY":"SGP4","NORAD_CAT_ID":"53165","PERIAPSIS":"538.858","REF_FRAME":"TEME","ARG_OF_PERICENTER":"86.5526","MEAN_ANOMALY":"273.5612","PERIOD":"95.437","RCS_SIZE":"LARGE","TIME_SYSTEM":"UTC","SEMIMAJOR_AXIS":"6917.872","INCLINATION":"53.2137","OBJECT_ID":"2022-083AK","CLASSIFICATION_TYPE":"U","TLE_LINE1":"1 53165U 22083AK  23028.80187999  .00001290  00000-0  99142-4 0  9992","APOAPSIS":"540.616","MEAN_MOTION_DDOT":"0.0000000000000","ECCENTRICITY":"0.00012710","FILE":"3764201","EPHEMERIS_TYPE":"0","SITE":"AFETR","MEAN_MOTION_DOT":"0.00001290","REV_AT_EPOCH":"2988","OBJECT_TYPE":"PAYLOAD","EPOCH":"2023-01-28T19:14:42.431136","OBJECT_NAME":"STARLINK-4090","TLE_LINE2":"2 53165  53.2137 223.3266 0001271  86.5526 273.5612 15.08842749 29881","CENTER_NAME":"EARTH","COUNTRY_CODE":"US","ELEMENT_SET_NO":"999","BSTAR":"0.00009914200000","DECAY_DATE":null,"MEAN_MOTION":"15.08842749"},{"GP_ID":"223914936","RA_OF_ASC_NODE":"223.2939","LAUNCH_DATE":"2022-07-17","NORAD_CAT_ID":"53166","PERIAPSIS":"538.861","REF_FRAME":"TEME","MEAN_ELEMENT_THEORY":"SGP4","ARG_OF_PERICENTER":"86.8436","MEAN_ANOMALY":"273.2700","TIME_SYSTEM":"UTC","SEMIMAJOR_AXIS":"6917.869","PERIOD":"95.437","RCS_SIZE":"LARGE","CLASSIFICATION_TYPE":"U","OBJECT_ID":"2022-083AL","INCLINATION":"53.2133","MEAN_MOTION_DDOT":"0.0000000000000","TLE_LINE1":"1 53166U 22083AL  23028.80923513  .00000756  00000-0  65599-4 0  9998","APOAPSIS":"540.606","EPHEMERIS_TYPE":"0","FILE":"3764201","ECCENTRICITY":"0.00012610","SITE":"AFETR","MEAN_MOTION_DOT":"0.00000756","EPOCH":"2023-01-28T19:25:17.915232","REV_AT_EPOCH":"2988","OBJECT_TYPE":"PAYLOAD","CENTER_NAME":"EARTH","TLE_LINE2":"2 53166  53.2133 223.2939 0001261  86.8436 273.2700 15.08843868 29884","OBJECT_NAME":"STARLINK-4110","BSTAR":"0.00006559900000","ELEMENT_SET_NO":"999","COUNTRY_CODE":"US","DECAY_DATE":null,"MEAN_MOTION":"15.08843868"},{"TIME_SYSTEM":"UTC","SEMIMAJOR_AXIS":"6917.855","PERIOD":"95.437","RCS_SIZE":"LARGE","MEAN_MOTION_DDOT":"0.0000000000000","TLE_LINE1":"1 53167U 22083AM  23028.88701228 -.00000446  00000-0 -99582-5 0  9992","APOAPSIS":"540.554","CLASSIFICATION_TYPE":"U","OBJECT_ID":"2022-083AM","INCLINATION":"53.2172","LAUNCH_DATE":"2022-07-17","GP_ID":"223913927","RA_OF_ASC_NODE":"207.9319","MEAN_ANOMALY":"276.1022","ARG_OF_PERICENTER":"84.0108","NORAD_CAT_ID":"53167","REF_FRAME":"TEME","PERIAPSIS":"538.885","MEAN_ELEMENT_THEORY":"SGP4","DECAY_DATE":null,"MEAN_MOTION":"15.08848419","BSTAR":"-0.00000995820000","ELEMENT_SET_NO":"999","COUNTRY_CODE":"US","SITE":"AFETR","MEAN_MOTION_DOT":"-0.00000446","EPHEMERIS_TYPE":"0","FILE":"3764201","ECCENTRICITY":"0.00012060","CENTER_NAME":"EARTH","TLE_LINE2":"2 53167  53.2172 207.9319 0001206  84.0108 276.1022 15.08848419 30095","OBJECT_NAME":"STARLINK-3683","EPOCH":"2023-01-28T21:17:17.860992","REV_AT_EPOCH":"3009","OBJECT_TYPE":"PAYLOAD"},{"MEAN_MOTION_DDOT":"0.0000000000000","APOAPSIS":"540.540","TLE_LINE1":"1 53168U 22083AN  23028.80555973 -.00000251  00000-0  23424-5 0  9994","CLASSIFICATION_TYPE":"U","OBJECT_ID":"2022-083AN","INCLINATION":"53.2142","SEMIMAJOR_AXIS":"6917.873","TIME_SYSTEM":"UTC","RCS_SIZE":"LARGE","PERIOD":"95.437","MEAN_ANOMALY":"277.3161","ARG_OF_PERICENTER":"82.7963","REF_FRAME":"TEME","PERIAPSIS":"538.937","NORAD_CAT_ID":"53168","MEAN_ELEMENT_THEORY":"SGP4","LAUNCH_DATE":"2022-07-17","RA_OF_ASC_NODE":"223.3063","GP_ID":"223914442","MEAN_MOTION":"15.08842318","DECAY_DATE":null,"BSTAR":"0.00000234240000","COUNTRY_CODE":"US","ELEMENT_SET_NO":"999","CENTER_NAME":"EARTH","TLE_LINE2":"2 53168  53.2142 223.3063 0001159  82.7963 277.3161 15.08842318 29886","OBJECT_NAME":"STARLINK-4105","EPOCH":"2023-01-28T19:20:00.360672","OBJECT_TYPE":"PAYLOAD","REV_AT_EPOCH":"2988","MEAN_MOTION_DOT":"-0.00000251","SITE":"AFETR","FILE":"3764201","EPHEMERIS_TYPE":"0","ECCENTRICITY":"0.00011590"},{"SEMIMAJOR_AXIS":"6917.875","TIME_SYSTEM":"UTC","RCS_SIZE":"LARGE","PERIOD":"95.437","OBJECT_ID":"2022-083AP","CLASSIFICATION_TYPE":"U","INCLINATION":"53.2181","MEAN_MOTION_DDOT":"0.0000000000000","TLE_LINE1":"1 53169U 22083AP  23028.77292989  .00000433  00000-0  45280-4 0  9990","APOAPSIS":"540.526","RA_OF_ASC_NODE":"208.4404","GP_ID":"223914690","LAUNCH_DATE":"2022-07-17","PERIAPSIS":"538.955","REF_FRAME":"TEME","NORAD_CAT_ID":"53169","MEAN_ELEMENT_THEORY":"SGP4","MEAN_ANOMALY":"274.5243","ARG_OF_PERICENTER":"85.5879","BSTAR":"0.00004528000000","COUNTRY_CODE":"US","ELEMENT_SET_NO":"999","MEAN_MOTION":"15.08841630","DECAY_DATE":null,"FILE":"3764201","EPHEMERIS_TYPE":"0","ECCENTRICITY":"0.00011360","MEAN_MOTION_DOT":"0.00000433","SITE":"AFETR","EPOCH":"2023-01-28T18:33:01.142496","OBJECT_TYPE":"PAYLOAD","REV_AT_EPOCH":"3007","TLE_LINE2":"2 53169  53.2181 208.4404 0001136  85.5879 274.5243 15.08841630 30074","CENTER_NAME":"EARTH","OBJECT_NAME":"STARLINK-4117"},{"MEAN_MOTION":"15.08840723","DECAY_DATE":null,"COUNTRY_CODE":"US","ELEMENT_SET_NO":"999","BSTAR":"0.00004047300000","OBJECT_NAME":"STARLINK-4095","TLE_LINE2":"2 53170  53.2161 218.1561 0001126  90.6602 269.4519 15.08840723 29952","CENTER_NAME":"EARTH","OBJECT_TYPE":"PAYLOAD","REV_AT_EPOCH":"2995","EPOCH":"2023-01-28T20:07:05.156832","MEAN_MOTION_DOT":"0.00000356","SITE":"AFETR","ECCENTRICITY":"0.00011260","FILE":"3764201","EPHEMERIS_TYPE":"0","TLE_LINE1":"1 53170U 22083AQ  23028.83825413  .00000356  00000-0  40473-4 0  9996","APOAPSIS":"540.522","MEAN_MOTION_DDOT":"0.0000000000000","INCLINATION":"53.2161","CLASSIFICATION_TYPE":"U","OBJECT_ID":"2022-083AQ","RCS_SIZE":"LARGE","PERIOD":"95.438","SEMIMAJOR_AXIS":"6917.878","TIME_SYSTEM":"UTC","MEAN_ANOMALY":"269.4519","ARG_OF_PERICENTER":"90.6602","MEAN_ELEMENT_THEORY":"SGP4","PERIAPSIS":"538.964","REF_FRAME":"TEME","NORAD_CAT_ID":"53170","LAUNCH_DATE":"2022-07-17","RA_OF_ASC_NODE":"218.1561","GP_ID":"223915428"},{"RA_OF_ASC_NODE":"192.7471","GP_ID":"223914426","LAUNCH_DATE":"2022-07-17","REF_FRAME":"TEME","PERIAPSIS":"538.968","NORAD_CAT_ID":"53171","MEAN_ELEMENT_THEORY":"SGP4","ARG_OF_PERICENTER":"102.8918","MEAN_ANOMALY":"257.2197","SEMIMAJOR_AXIS":"6917.860","TIME_SYSTEM":"UTC","RCS_SIZE":"LARGE","PERIOD":"95.437","OBJECT_ID":"2022-083AR","CLASSIFICATION_TYPE":"U","INCLINATION":"53.2182","MEAN_MOTION_DDOT":"0.0000000000000","APOAPSIS":"540.481","TLE_LINE1":"1 53171U 22083AR  23028.87547926 -.00000302  00000-0 -91959-6 0  9991","FILE":"3764201","EPHEMERIS_TYPE":"0","ECCENTRICITY":"0.00010940","MEAN_MOTION_DOT":"-0.00000302","SITE":"AFETR","EPOCH":"2023-01-28T21:00:41.408064","OBJECT_TYPE":"PAYLOAD","REV_AT_EPOCH":"3030","CENTER_NAME":"EARTH","TLE_LINE2":"2 53171  53.2182 192.7471 0001094 102.8918 257.2197 15.08846778 30307","OBJECT_NAME":"STARLINK-4052","BSTAR":"-0.00000091959000","ELEMENT_SET_NO":"999","COUNTRY_CODE":"US","MEAN_MOTION":"15.08846778","DECAY_DATE":null},{"FILE":"3764201","EPHEMERIS_TYPE":"0","ECCENTRICITY":"0.00011030","SITE":"AFETR","MEAN_MOTION_DOT":"0.00000879","EPOCH":"2023-01-28T20:01:47.486496","REV_AT_EPOCH":"2994","OBJECT_TYPE":"PAYLOAD","CENTER_NAME":"EARTH","TLE_LINE2":"2 53172  53.2168 218.1720 0001103  90.4833 269.6285 15.08839162 29943","OBJECT_NAME":"STARLINK-4299","BSTAR":"0.00007327600000","COUNTRY_CODE":"US","ELEMENT_SET_NO":"999","DECAY_DATE":null,"MEAN_MOTION":"15.08839162","GP_ID":"223913944","RA_OF_ASC_NODE":"218.1720","LAUNCH_DATE":"2022-07-17","NORAD_CAT_ID":"53172","REF_FRAME":"TEME","PERIAPSIS":"538.985","MEAN_ELEMENT_THEORY":"SGP4","ARG_OF_PERICENTER":"90.4833","MEAN_ANOMALY":"269.6285","TIME_SYSTEM":"UTC","SEMIMAJOR_AXIS":"6917.883","PERIOD":"95.438","RCS_SIZE":"LARGE","CLASSIFICATION_TYPE":"U","OBJECT_ID":"2022-083AS","INCLINATION":"53.2168","MEAN_MOTION_DDOT":"0.0000000000000","TLE_LINE1":"1 53172U 22083AS  23028.83457739  .00000879  00000-0  73276-4 0  9997","APOAPSIS":"540.511"}];
